{"updated":"2026-06-28T09:55:47.565Z","count":12200,"member":[{"name":"STARLINK-4534","line1":"1 53395U 22097H   26178.52834353  .00000333  00000+0  38991-4 0  9994","line2":"2 53395  53.1603 350.8877 0001138  86.9527 273.1595 15.08833023215095"},{"name":"STARLINK-34101","line1":"1 63812U 25092J   26177.97954089  .00022103  00000+0  81042-3 0  9997","line2":"2 63812  43.0008 274.9425 0001308 271.5086  88.5616 15.27576466 65274"},{"name":"STARLINK-1801","line1":"1 46701U 20073AH  26151.54720454  .10742885  12491-4  39665-3 0  9994","line2":"2 46701  53.0177 137.1315 0004338 281.3089  78.7472 16.44090342310915"},{"name":"STARLINK-31816","line1":"1 59742U 24090N   26178.00396383 -.00001260  00000+0 -36279-4 0  9999","line2":"2 59742  43.0011 286.5269 0000806 273.1919  86.8841 15.27566686120136"},{"name":"STARLINK-37473","line1":"1 68804U 26089C   26178.50002315  .00075732  00000+0  23273-2 0  9993","line2":"2 68804  97.2848  25.4083 0002174  98.2711  86.6219 15.33409029  5980"},{"name":"STARLINK-5106","line1":"1 54823U 22177D   26178.52772361 -.00004899  00000+0 -16878-3 0  9992","line2":"2 54823  43.0062 235.5865 0002109 299.3764  60.6877 15.27544052193726"},{"name":"STARLINK-34401","line1":"1 64757U 25147C   26178.48304356  .00020520  00000+0  61704-3 0  9994","line2":"2 64757  53.1588  91.2171 0001451  77.7030 282.4135 15.34387504 55518"},{"name":"STARLINK-3256","line1":"1 50202U 21125AY  26178.01816352 -.00000251  00000+0  23176-5 0  9992","line2":"2 50202  53.1614 108.1708 0001553 107.3491 252.7671 15.08833651253230"},{"name":"STARLINK-32558","line1":"1 62169U 24225G   26178.44306280  .00002298  00000+0  20030-3 0  9998","line2":"2 62169  70.0003 247.7783 0003623 269.7398  90.3346 14.98332823 86318"},{"name":"STARLINK-6146","line1":"1 57124U 23090Z   26178.54421911 -.00000983  00000+0 -26205-4 0  9994","line2":"2 57124  43.0048  21.1162 0001196 272.4680  87.6035 15.27563973167134"},{"name":"STARLINK-35309","line1":"1 66323U 25253E   26178.10160111  .00018093  00000+0  66544-3 0  9990","line2":"2 66323  43.0075 314.9452 0002120 271.5027  88.5582 15.27577421 36970"},{"name":"STARLINK-31117","line1":"1 58776U 24011M   26178.39517824  .00010139  00000+0  35366-3 0  9993","line2":"2 58776  53.1582 224.3174 0000781  23.7955 336.3082 15.30229829137062"},{"name":"STARLINK-1944","line1":"1 46796U 20074BK  26177.67191205  .00653330  21934-3  91140-3 0  9999","line2":"2 46796  53.0304  84.8744 0007088 235.6698 124.3663 16.05294606314604"},{"name":"STARLINK-31903","line1":"1 59845U 24097L   26178.25122721 -.00001038  00000+0 -28233-4 0  9994","line2":"2 59845  43.0045   8.6175 0001077 257.8926 102.1805 15.27554200118750"},{"name":"STARLINK-37477","line1":"1 68912U 26097T   26178.53406627  .00013261  00000+0  41230-3 0  9992","line2":"2 68912  97.2849  13.9269 0001754  94.8314 265.3129 15.33450132  9074"},{"name":"STARLINK-5330","line1":"1 55282U 23010P   26178.26641156  .00000319  00000+0  34528-4 0  9991","line2":"2 55282  69.9995 128.0019 0003729 262.7753  97.2982 14.98328670189198"},{"name":"STARLINK-34682","line1":"1 64854U 25152N   26178.49287250  .00005889  00000+0  41156-3 0  9992","line2":"2 64854  97.3064  32.4413 0002411  78.4844 281.6654 15.05663284 51949"},{"name":"STARLINK-3372","line1":"1 51113U 22005K   26178.24909558  .00001415  00000+0  10697-3 0  9992","line2":"2 51113  53.1589 157.1321 0000888  70.6821 289.4266 15.08831543245413"},{"name":"STARLINK-11489 [DTC]","line1":"1 62271U 24237E   26178.10152593  .00173785  00000+0  13265-2 0  9995","line2":"2 62271  43.0000 117.6730 0001551 260.2808  99.7884 15.70898293 90253"},{"name":"STARLINK-5517","line1":"1 57249U 23094AH  26178.15117056 -.00000062  00000+0  72572-5 0  9991","line2":"2 57249  43.0036 121.3946 0000658 294.2908  65.7875 15.27573462163981"},{"name":"STARLINK-35656","line1":"1 66391U 25257M   26178.42006528  .00004581  00000+0  16679-3 0  9996","line2":"2 66391  53.1616  70.1676 0001256  99.8915 260.2227 15.30180198 36591"},{"name":"STARLINK-2092","line1":"1 47373U 21005AA  26178.49724325 -.00000024  00000+0  10994-4 0  9995","line2":"2 47373  53.1570 271.6234 0001025  97.4709 262.6409 15.31692791299852"},{"name":"STARLINK-31968","line1":"1 59927U 24106F   26178.39296103 -.00001771  00000+0 -54884-4 0  9992","line2":"2 59927  43.0001  72.7057 0001044 270.7196  89.3536 15.27565161117351"},{"name":"STARLINK-37723","line1":"1 69128U 26110E   26178.47844852  .00019815  00000+0  61449-3 0  9992","line2":"2 69128  97.2845  14.7037 0001763  90.3745 269.7700 15.33443202  7184"},{"name":"STARLINK-30925","line1":"1 58406U 23180E   26178.01125390 -.00000216  00000+0  16702-5 0  9992","line2":"2 58406  43.0009 155.3051 0001650 273.2553  86.8110 15.27574717144223"},{"name":"STARLINK-36400","line1":"1 67575U 26016Q   26178.43197421  .00021359  00000+0  66203-3 0  9999","line2":"2 67575  97.2859 238.3096 0001136  95.0319 265.1053 15.33445563 23681"},{"name":"STARLINK-3660","line1":"1 51977U 22025X   26178.50002315  .00068419  00000+0  34320-2 0  9991","line2":"2 51977  53.1586 245.8904 0000311  24.1669 343.4549 15.16717365  5632"},{"name":"STARLINK-32958","line1":"1 63563U 25075R   26178.25199247  .00048745  00000+0  17696-2 0  9993","line2":"2 63563  43.0067  11.8742 0002241 271.5141  88.5454 15.27571893 68688"},{"name":"STARLINK-5099","line1":"1 54009U 22125AX  26178.41969296 -.00000024  00000+0  16562-4 0  9990","line2":"2 54009  53.1607  80.9726 0001181  81.1607 278.9518 15.08835412206036"},{"name":"STARLINK-34506","line1":"1 64432U 25129W   26178.32291979  .00002061  00000+0  18043-3 0  9991","line2":"2 64432  70.0001 157.8558 0003715 264.9327  95.1409 14.98334634 57653"},{"name":"STARLINK-31734","line1":"1 59534U 24074A   26178.43019931 -.00001772  00000+0 -54882-4 0  9996","line2":"2 59534  43.0044  72.8743 0001431 262.9262  97.1427 15.27568676122921"},{"name":"STARLINK-37248","line1":"1 68527U 26068V   26178.14595348  .00022663  00000+0  67996-3 0  9991","line2":"2 68527  53.1591 336.5011 0001526  93.5974 266.5203 15.34395008 13763"},{"name":"STARLINK-6052","line1":"1 56793U 23078AC  26178.13205204  .00001377  00000+0  12319-3 0  9997","line2":"2 56793  69.9998  68.5136 0002864 263.3613  96.7220 14.98323882169072"},{"name":"STARLINK-35572","line1":"1 66117U 25237D   26178.51222192  .00012879  00000+0  44592-3 0  9991","line2":"2 66117  53.1595 249.5954 0001417  84.9701 275.1462 15.30220876 39420"},{"name":"STARLINK-2341","line1":"1 47794U 21018H   23362.05619743 -.00000066  00000+0  14490-4 0  9998","line2":"2 47794  53.0537 234.7820 0001437  90.2058 269.9095 15.06405370155553"},{"name":"STARLINK-32572","line1":"1 61952U 24209P   26178.50930323  .00015083  00000+0  52028-3 0  9995","line2":"2 61952  53.1597 352.1033 0001667 109.9066 250.2114 15.30202974 91719"},{"name":"STARLINK-31002","line1":"1 58495U 23186Y   26177.69070778 -.00001096  00000+0 -30303-4 0  9998","line2":"2 58495  43.0038 168.3094 0001408 267.5858  92.4833 15.27568865142724"},{"name":"STARLINK-36619","line1":"1 67645U 26020AE  26178.45030411  .00021464  00000+0  78689-3 0  9997","line2":"2 67645  42.9984 239.5956 0001234 284.9990  75.0725 15.27593851 22901"},{"name":"STARLINK-3711","line1":"1 52131U 22029AV  26178.50332002  .00029486  00000+0  13977-2 0  9993","line2":"2 52131  53.2117 288.4936 0001014 192.4279 167.6693 15.19088403237620"},{"name":"STARLINK-11666 [DTC]","line1":"1 63667U 25085D   26178.15575377  .00284491  00000+0  21335-2 0  9995","line2":"2 63667  42.9993 338.9832 0002054 292.0380  68.0269 15.70974068 67367"},{"name":"STARLINK-5269","line1":"1 54161U 22141E   26178.43543501  .00000050  00000+0  21237-4 0  9999","line2":"2 54161  53.1592 241.3985 0001107  85.4272 274.6846 15.08833456202287"},{"name":"STARLINK-34486","line1":"1 64597U 25137D   26178.31664110  .00012241  00000+0  42468-3 0  9991","line2":"2 64597  53.1560 186.4279 0000855  80.5599 279.5498 15.30202615 57511"},{"name":"STARLINK-1020","line1":"1 44725U 19074N   26177.92908264  .00083183  00000+0  11182-2 0  9993","line2":"2 44725  53.1562  45.6148 0003501 161.7825 198.3314 15.57202001365379"},{"name":"STARLINK-31777","line1":"1 59619U 24080U   26177.91900988  .00000273  00000+0  19463-4 0  9999","line2":"2 59619  43.0010 144.8572 0001463 268.9789  91.0894 15.27576561121194"},{"name":"STARLINK-37195","line1":"1 68662U 26077A   26178.37642541  .00018911  00000+0  58578-3 0  9991","line2":"2 68662  97.2879  49.4173 0001492 108.5506 251.5899 15.33491266 11967"},{"name":"STARLINK-6219","line1":"1 56892U 23083S   26178.32979904 -.00000136  00000+0  45664-5 0  9993","line2":"2 56892  43.0003 189.8236 0000865 265.9513  94.1240 15.27575021168357"},{"name":"STARLINK-35041","line1":"1 66188U 25243M   26178.47095512  .00019295  00000+0  58058-3 0  9996","line2":"2 66188  53.1588  95.2027 0000828 100.1771 259.9325 15.34408027 37460"},{"name":"STARLINK-2327","line1":"1 47871U 21021M   23362.17139635  .00014981  00000+0  10220-2 0  9993","line2":"2 47871  53.0544 264.2652 0001450  85.2275 274.8879 15.06417496154903"},{"name":"STARLINK-32618","line1":"1 62045U 24216P   26178.53719836  .00011361  00000+0  42173-3 0  9999","line2":"2 62045  43.0027 356.1062 0001708 268.2481  91.8175 15.27579694 90673"},{"name":"STARLINK-31069","line1":"1 58607U 23200U   26178.55827788 -.00003999  00000+0 -13591-3 0  9990","line2":"2 58607  43.0026 268.3845 0000941 266.7887  93.2857 15.27571727140415"},{"name":"STARLINK-36749","line1":"1 67734U 26026P   26178.42318470  .00011593  00000+0  36103-3 0  9990","line2":"2 67734  97.2860 231.4833 0000701   9.0746 351.0509 15.33430141 20942"},{"name":"STARLINK-3831","line1":"1 52332U 22045B   26178.41931072  .00001321  00000+0  10106-3 0  9996","line2":"2 52332  53.1607  76.3807 0001527  95.1897 264.9268 15.08846204232208"},{"name":"STARLINK-33844","line1":"1 63768U 25089T   26177.97105821  .00020499  00000+0  75281-3 0  9999","line2":"2 63768  43.0002 147.8217 0001354 261.1438  98.9260 15.27560090 65672"}]}